OBJECT_NAME,OBJECT_ID,EPOCH,MEAN_MOTION,ECCENTRICITY,INCLINATION,RA_OF_ASC_NODE,ARG_OF_PERICENTER,MEAN_ANOMALY,EPHEMERIS_TYPE,CLASSIFICATION_TYPE,NORAD_CAT_ID,ELEMENT_SET_NO,REV_AT_EPOCH,BSTAR,MEAN_MOTION_DOT,MEAN_MOTION_DDOT
KOREASAT 5 (MUGUNGWHA 5),2006-034A,2026-07-18T17:11:05.601120,1.00272399,.0001734,1.8647,82.5971,79.5347,145.2062,0,U,29349,999,4163,0,-.365E-5,0
DIRECTV 9S,2006-043A,2026-07-18T13:59:38.658048,1.00271531,.0005046,2.5000,80.5247,32.7048,291.8605,0,U,29494,999,5169,0,-.122E-5,0
OPTUS D1,2006-043B,2026-07-18T17:22:12.037152,1.00272262,.0003623,3.1141,79.2698,35.9437,233.8133,0,U,29495,999,7243,0,-.192E-5,0
BADR-4,2006-051A,2026-07-18T20:59:16.812096,1.00273516,.0004875,2.0848,80.7748,33.8266,171.3419,0,U,29526,999,5158,0,.148E-5,0
WILDBLUE-1,2006-054A,2026-07-18T14:02:35.677824,1.00271882,.0001429,2.8823,80.0879,30.9493,284.7791,0,U,29643,999,5410,0,-.57E-6,0
SKYNET 5A,2007-007B,2026-07-18T20:42:10.240128,1.00273507,.0003499,5.3777,73.3499,45.2221,223.8380,0,U,30794,999,7101,0,-.28E-5,0
ANIK F3,2007-009A,2026-07-18T17:47:32.106912,1.00272175,.0002598,1.2774,83.4751,33.4112,327.8098,0,U,31102,999,4688,0,-.8E-7,0
ASTRA 1L,2007-016A,2026-07-18T18:14:29.521824,1.00270913,.0005365,1.4015,81.3240,36.0888,68.2515,0,U,31306,999,4530,0,-.192E-5,0
GALAXY 17 (G-17),2007-016B,2026-07-18T12:49:14.182752,1.00271231,.000369,3.0491,79.5055,36.7359,287.3764,0,U,31307,999,7011,0,-.215E-5,0
INTELSAT 11 (IS-11),2007-044B,2026-07-18T08:02:22.632288,0.99052932,.00043408,3.6447,78.2916,99.6437,227.6151,0,U,32253,999,6875,0,-.221E-5,0
WGS F1 (USA 195),2007-046A,2026-07-18T09:36:03.273696,1.00272040,.00002643,0.0159,72.7522,106.7121,218.2345,0,U,32258,999,5264,0,-.275E-5,0
SKYNET 5B,2007-056B,2026-07-18T17:43:08.851296,1.00269021,.0003597,5.3293,73.1230,41.9679,112.3492,0,U,32294,999,6851,0,.131E-5,0
ASTRA 4A,2007-057A,2026-07-18T18:58:38.631360,1.00272726,.0002546,0.0514,271.4816,211.3654,103.1926,0,U,32299,999,5196,0,.26E-6,0
HORIZONS-2,2007-063B,2026-07-18T18:00:23.376384,1.00272886,.0003598,2.6817,80.2401,17.9256,34.6717,0,U,32388,999,6813,0,-.261E-5,0
THURAYA-3,2008-001A,2026-07-18T17:33:38.843712,1.00273087,.0002265,6.0420,35.8278,78.3149,149.4964,0,U,32404,999,6780,0,0,0
THOR 5,2008-006A,2026-07-18T18:58:38.631360,1.00272903,.0002455,0.0633,251.4505,232.9686,96.0718,0,U,32487,999,6763,0,-.15E-6,0
AMC-14,2008-011A,2026-07-18T11:53:46.942080,1.00420408,.00391214,24.0463,20.1410,8.5379,166.5729,0,U,32708,999,6848,0,-.204E-5,0
DIRECTV 11,2008-013A,2026-07-18T13:59:38.658048,1.00271591,.0000074,0.0038,258.4183,198.8034,309.8804,0,U,32729,999,4590,0,-.133E-5,0
ICO G1,2008-016A,2026-07-18T13:52:24.860064,1.00272818,.0002246,5.5285,36.0268,73.2314,302.3814,0,U,32763,999,6686,0,-.181E-5,0
VINASAT-1,2008-018A,2026-07-18T17:16:27.587136,1.00271706,.0001665,0.0430,266.6834,222.0068,198.8762,0,U,32767,999,6690,0,-.335E-5,0
STAR ONE C2,2008-018B,2026-07-18T19:39:38.665728,1.00277925,.0002678,1.3192,82.1612,39.2581,45.1110,0,U,32768,999,6697,0,-.284E-5,0
AMOS-3,2008-022A,2026-07-18T21:20:51.434016,1.00489620,.000315,0.5352,85.7711,82.9459,151.3278,0,U,32794,999,8265,0,-.28E-6,0
GALAXY 18 (G-18),2008-024A,2026-07-18T14:07:38.839008,1.00271527,.0002924,0.0193,80.6595,35.7671,268.8509,0,U,32951,999,4616,0,.18E-6,0
ZHONGXING-9,2008-028A,2026-07-17T17:30:38.547648,1.00268541,.00032719,0.8452,84.9376,31.7354,173.8616,0,U,33051,999,6634,0,-.257E-5,0
SKYNET 5C,2008-030A,2026-07-18T09:43:10.092288,1.00272370,.00042417,3.8669,76.6695,47.5559,299.9825,0,U,33055,999,6626,0,-.149E-5,0
TURKSAT 3A,2008-030B,2026-07-18T20:15:34.693056,1.00272468,.0004962,0.0444,78.2679,19.9594,184.2763,0,U,33056,999,5267,0,.14E-5,0
ECHOSTAR 11,2008-035A,2026-07-18T13:59:38.658048,1.00271457,.0002315,1.0846,83.8206,24.6341,288.0265,0,U,33207,999,5152,0,-.65E-6,0
SUPERBIRD-C2,2008-038A,2026-07-18T17:17:34.979136,1.00271693,.0006313,2.4405,80.8727,39.3568,211.6864,0,U,33274,999,10604,0,-.314E-5,0
INMARSAT 4-F3,2008-039A,2026-07-18T11:14:38.819904,1.00272619,.00026852,4.3197,31.7059,90.6528,244.5895,0,U,33278,999,4685,0,-.149E-5,0
NIMIQ 4,2008-044A,2026-07-18T13:51:38.716416,1.00270887,.0001854,0.0162,50.1472,56.8411,315.2989,0,U,33373,999,6529,0,-.227E-5,0
GALAXY 19 (G-19),2008-045A,2026-07-18T13:54:30.802752,1.00270987,.0002494,0.0440,245.8172,241.6064,280.5810,0,U,33376,999,6521,0,-.146E-5,0
ASTRA 1M,2008-057A,2026-07-18T19:58:52.472064,1.00271486,.0004608,0.3760,82.8329,42.9960,129.8797,0,U,33436,999,4605,0,.114E-5,0
