KOREASAT 5 (MUGUNGWHA 5)
1 29349U 06034A   26199.71603705 -.00000365  00000+0  00000+0 0  9999
2 29349   1.8647  82.5971 0001734  79.5347 145.2062  1.00272399 41634
DIRECTV 9S              
1 29494U 06043A   26199.58308632 -.00000122  00000+0  00000+0 0  9997
2 29494   2.5000  80.5247 0005046  32.7048 291.8605  1.00271531 51694
OPTUS D1                
1 29495U 06043B   26199.72375043 -.00000192  00000+0  00000+0 0  9991
2 29495   3.1141  79.2698 0003623  35.9437 233.8133  1.00272262 72438
BADR-4                  
1 29526U 06051A   26199.87450014  .00000148  00000+0  00000+0 0  9993
2 29526   2.0848  80.7748 0004875  33.8266 171.3419  1.00273516 51584
WILDBLUE-1              
1 29643U 06054A   26199.58513516 -.00000057  00000+0  00000+0 0  9991
2 29643   2.8823  80.0879 0001429  30.9493 284.7791  1.00271882 54102
SKYNET 5A               
1 30794U 07007B   26199.86261852 -.00000280  00000+0  00000+0 0  9991
2 30794   5.3777  73.3499 0003499  45.2221 223.8380  1.00273507 71010
ANIK F3                 
1 31102U 07009A   26199.74134383 -.00000008  00000+0  00000+0 0  9990
2 31102   1.2774  83.4751 0002598  33.4112 327.8098  1.00272175 46884
ASTRA 1L                
1 31306U 07016A   26199.76006391 -.00000192  00000+0  00000+0 0  9997
2 31306   1.4015  81.3240 0005365  36.0888  68.2515  1.00270913 45308
GALAXY 17 (G-17)        
1 31307U 07016B   26199.53419193 -.00000215  00000+0  00000+0 0  9997
2 31307   3.0491  79.5055 0003690  36.7359 287.3764  1.00271231 70118
INTELSAT 11 (IS-11)     
1 32253U 07044B   26199.33498417 -.00000221  00000+0  00000+0 0  9990
2 32253   3.6447  78.2916 0004340  99.6437 227.6151  0.99052932 68752
WGS F1 (USA 195)        
1 32258U 07046A   26199.40003789 -.00000275  00000+0  00000+0 0  9998
2 32258   0.0159  72.7522 0000264 106.7121 218.2345  1.00272040 52640
SKYNET 5B               
1 32294U 07056B   26199.73829689  .00000131  00000+0  00000+0 0  9990
2 32294   5.3293  73.1230 0003597  41.9679 112.3492  1.00269021 68513
ASTRA 4A                
1 32299U 07057A   26199.79072490  .00000026  00000+0  00000+0 0  9995
2 32299   0.0514 271.4816 0002546 211.3654 103.1926  1.00272726 51965
HORIZONS-2              
1 32388U 07063B   26199.75027056 -.00000261  00000+0  00000+0 0  9997
2 32388   2.6817  80.2401 0003598  17.9256  34.6717  1.00272886 68130
THURAYA-3               
1 32404U 08001A   26199.73169958  .00000000  00000+0  00000+0 0  9995
2 32404   6.0420  35.8278 0002265  78.3149 149.4964  1.00273087 67803
THOR 5                  
1 32487U 08006A   26199.79072490 -.00000015  00000+0  00000+0 0  9998
2 32487   0.0633 251.4505 0002455 232.9686  96.0718  1.00272903 67639
AMC-14                  
1 32708U 08011A   26199.49568220 -.00000204  00000+0  00000+0 0  9998
2 32708  24.0463  20.1410 0039121   8.5379 166.5729  1.00420408 68488
DIRECTV 11              
1 32729U 08013A   26199.58308632 -.00000133  00000+0  00000+0 0  9993
2 32729   0.0038 258.4183 0000074 198.8034 309.8804  1.00271591 45907
ICO G1                  
1 32763U 08016A   26199.57806551 -.00000181  00000+0  00000+0 0  9999
2 32763   5.5285  36.0268 0002246  73.2314 302.3814  1.00272818 66863
VINASAT-1               
1 32767U 08018A   26199.71976374 -.00000335  00000+0  00000+0 0  9993
2 32767   0.0430 266.6834 0001665 222.0068 198.8762  1.00271706 66903
STAR ONE C2             
1 32768U 08018B   26199.81919752 -.00000284  00000+0  00000+0 0  9995
2 32768   1.3192  82.1612 0002678  39.2581  45.1110  1.00277925 66978
AMOS-3                  
1 32794U 08022A   26199.88948419 -.00000028  00000+0  00000+0 0  9994
2 32794   0.5352  85.7711 0003150  82.9459 151.3278  1.00489620 82655
GALAXY 18 (G-18)        
1 32951U 08024A   26199.58864397  .00000018  00000+0  00000+0 0  9998
2 32951   0.0193  80.6595 0002924  35.7671 268.8509  1.00271527 46164
ZHONGXING-9             
1 33051U 08028A   26198.72961282 -.00000257  00000+0  00000+0 0  9996
2 33051   0.8452  84.9376 0003271  31.7354 173.8616  1.00268541 66344
SKYNET 5C               
1 33055U 08030A   26199.40497792 -.00000149  00000+0  00000+0 0  9999
2 33055   3.8669  76.6695 0004241  47.5559 299.9825  1.00272370 66261
TURKSAT 3A              
1 33056U 08030B   26199.84415154  .00000140  00000+0  00000+0 0  9990
2 33056   0.0444  78.2679 0004962  19.9594 184.2763  1.00272468 52679
ECHOSTAR 11             
1 33207U 08035A   26199.58308632 -.00000065  00000+0  00000+0 0  9993
2 33207   1.0846  83.8206 0002315  24.6341 288.0265  1.00271457 51525
SUPERBIRD-C2            
1 33274U 08038A   26199.72054374 -.00000314  00000+0  00000+0 0  9994
2 33274   2.4405  80.8727 0006313  39.3568 211.6864  1.00271693106043
INMARSAT 4-F3           
1 33278U 08039A   26199.46850486 -.00000149  00000+0  00000+0 0  9994
2 33278   4.3197  31.7059 0002685  90.6528 244.5895  1.00272619 46853
NIMIQ 4                 
1 33373U 08044A   26199.57753144 -.00000227  00000+0  00000+0 0  9998
2 33373   0.0162  50.1472 0001854  56.8411 315.2989  1.00270887 65294
GALAXY 19 (G-19)        
1 33376U 08045A   26199.57952318 -.00000146  00000+0  00000+0 0  9996
2 33376   0.0440 245.8172 0002494 241.6064 280.5810  1.00270987 65215
ASTRA 1M                
1 33436U 08057A   26199.83255176  .00000114  00000+0  00000+0 0  9997
2 33436   0.3760  82.8329 0004608  42.9960 129.8797  1.00271486 46054
